{
    "links": {
        "self": "http://www.neowsapp.com/rest/v1/neo/3610764?api_key=iIulBulltgU6a56xZRHN4H3l9WmuAYTsLGpBGhQ2"
    },
    "id": "3610764",
    "neo_reference_id": "3610764",
    "name": "(2012 TH146)",
    "designation": "2012 TH146",
    "nasa_jpl_url": "http://ssd.jpl.nasa.gov/sbdb.cgi?sstr=3610764",
    "absolute_magnitude_h": 23.8,
    "estimated_diameter": {
        "kilometers": {
            "estimated_diameter_min": 0.046190746,
            "estimated_diameter_max": 0.1032856481
        },
        "meters": {
            "estimated_diameter_min": 46.1907460282,
            "estimated_diameter_max": 103.2856480504
        },
        "miles": {
            "estimated_diameter_min": 0.0287015901,
            "estimated_diameter_max": 0.0641787064
        },
        "feet": {
            "estimated_diameter_min": 151.544447199,
            "estimated_diameter_max": 338.8636855496
        }
    },
    "is_potentially_hazardous_asteroid": false,
    "close_approach_data": [
        {
            "close_approach_date": "2008-10-23",
            "close_approach_date_full": "2008-Oct-23 04:34",
            "epoch_date_close_approach": 1224736440000,
            "relative_velocity": {
                "kilometers_per_second": "3.8370890239",
                "kilometers_per_hour": "13813.5204860202",
                "miles_per_hour": "8583.1844375496"
            },
            "miss_distance": {
                "astronomical": "0.2598874911",
                "lunar": "101.0962340379",
                "kilometers": "38878615.108203957",
                "miles": "24158051.2045183266"
            },
            "orbiting_body": "Earth"
        },
        {
            "close_approach_date": "2012-10-26",
            "close_approach_date_full": "2012-Oct-26 17:34",
            "epoch_date_close_approach": 1351272840000,
            "relative_velocity": {
                "kilometers_per_second": "3.6583766863",
                "kilometers_per_hour": "13170.1560705246",
                "miles_per_hour": "8183.4228094879"
            },
            "miss_distance": {
                "astronomical": "0.2369300115",
                "lunar": "92.1657744735",
                "kilometers": "35444225.059475505",
                "miles": "22024020.184571769"
            },
            "orbiting_body": "Earth"
        },
        {
            "close_approach_date": "2016-11-01",
            "close_approach_date_full": "2016-Nov-01 10:30",
            "epoch_date_close_approach": 1477996200000,
            "relative_velocity": {
                "kilometers_per_second": "4.0706289893",
                "kilometers_per_hour": "14654.2643616473",
                "miles_per_hour": "9105.5899862691"
            },
            "miss_distance": {
                "astronomical": "0.3189815306",
                "lunar": "124.0838154034",
                "kilometers": "47718957.547099822",
                "miles": "29651185.2760366636"
            },
            "orbiting_body": "Earth"
        }
    ],
    "orbital_data": {
        "orbit_id": "10",
        "orbit_determination_date": "2017-04-06 08:48:35",
        "first_observation_date": "2012-10-11",
        "last_observation_date": "2012-11-16",
        "data_arc_in_days": 36,
        "observations_used": 21,
        "orbit_uncertainty": "6",
        "minimum_orbit_intersection": ".248834",
        "jupiter_tisserand_invariant": "3.266",
        "epoch_osculation": "2459000.5",
        "eccentricity": ".5063233305140206",
        "semi_major_axis": "2.514236548522462",
        "inclination": "3.659309040007515",
        "ascending_node_longitude": "231.0392813711267",
        "orbital_period": "1456.155080459974",
        "perihelion_distance": "1.241219925574493",
        "perihelion_argument": "163.0982699729742",
        "aphelion_distance": "3.787253171470432",
        "perihelion_time": "2459131.660038275468",
        "mean_anomaly": "327.5737739662637",
        "mean_motion": ".2472264148446897",
        "equinox": "J2000",
        "orbit_class": {
            "orbit_class_type": "AMO",
            "orbit_class_description": "Near-Earth asteroid orbits similar to that of 1221 Amor",
            "orbit_class_range": "1.017 AU < q (perihelion) < 1.3 AU"
        }
    },
    "is_sentry_object": false
}